[{"OBJECT_NAME":"NUSAT-50 (NANCY ROMAN)","OBJECT_ID":"2024-149AB","EPOCH":"2026-03-09T19:15:16.765632","MEAN_MOTION":15.29713355,"ECCENTRICITY":0.00025229,"INCLINATION":97.3817,"RA_OF_ASC_NODE":150.7693,"ARG_OF_PERICENTER":238.0469,"MEAN_ANOMALY":122.0527,"EPHEMERIS_TYPE":0,"CLASSIFICATION_TYPE":"U","NORAD_CAT_ID":60493,"ELEMENT_SET_NO":999,"REV_AT_EPOCH":8693,"BSTAR":0.0004225155,"MEAN_MOTION_DOT":0.00012094,"MEAN_MOTION_DDOT":0},{"OBJECT_NAME":"STARLINK-35531","OBJECT_ID":"2025-236AC","EPOCH":"2026-03-09T11:30:39.663936","MEAN_MOTION":15.30192173,"ECCENTRICITY":0.00014919,"INCLINATION":53.1595,"RA_OF_ASC_NODE":104.76,"ARG_OF_PERICENTER":76.8145,"MEAN_ANOMALY":283.3022,"EPHEMERIS_TYPE":0,"CLASSIFICATION_TYPE":"U","NORAD_CAT_ID":66112,"ELEMENT_SET_NO":999,"REV_AT_EPOCH":2291,"BSTAR":0.00093900161,"MEAN_MOTION_DOT":0.00027548,"MEAN_MOTION_DDOT":0}]
